[{"OBJECT_NAME":"STARLINK-1335","OBJECT_ID":"2020-025BC","EPOCH":"2026-03-09T07:27:43.349760","MEAN_MOTION":15.29356205,"ECCENTRICITY":0.00014789,"INCLINATION":53.1576,"RA_OF_ASC_NODE":76.8114,"ARG_OF_PERICENTER":99.6562,"MEAN_ANOMALY":260.4606,"EPHEMERIS_TYPE":0,"CLASSIFICATION_TYPE":"U","NORAD_CAT_ID":45581,"ELEMENT_SET_NO":999,"REV_AT_EPOCH":32547,"BSTAR":-9.019254e-6,"MEAN_MOTION_DOT":-6.16e-6,"MEAN_MOTION_DDOT":0},{"OBJECT_NAME":"COSMOS 2251 DEB","OBJECT_ID":"1993-036BTX","EPOCH":"2026-02-28T17:34:44.973408","MEAN_MOTION":15.25753352,"ECCENTRICITY":0.00216382,"INCLINATION":73.9681,"RA_OF_ASC_NODE":229.3494,"ARG_OF_PERICENTER":13.6287,"MEAN_ANOMALY":346.5492,"EPHEMERIS_TYPE":0,"CLASSIFICATION_TYPE":"U","NORAD_CAT_ID":38487,"ELEMENT_SET_NO":999,"REV_AT_EPOCH":67986,"BSTAR":0.0024802785,"MEAN_MOTION_DOT":0.00064261,"MEAN_MOTION_DDOT":0}]
